{
  "type": "FeatureCollection",
  "features": [
    {
      "type": "Feature",
      "properties": {
        "norad_id": 26766,
        "name": "INTELSAT 10 (IS-10)",
        "group": "intelsat",
        "lat": -0.5769954684553007,
        "lon": 57.286388086512204,
        "alt_km": 36148.50509080018,
        "timestamp": "2025-12-02T10:50:46.940783+00:00",
        "meta_object_name": "INTELSAT 10 (IS-10)",
        "meta_object_id": "2001-019A",
        "meta_epoch": "2025-12-01T11:39:24.752160",
        "meta_mean_motion": 0.99077519,
        "meta_eccentricity": 0.00076044,
        "meta_inclination": 8.6009,
        "meta_ra_of_asc_node": 61.2665,
        "meta_arg_of_pericenter": 217.709,
        "meta_mean_anomaly": 153.5892,
        "meta_ephemeris_type": 0,
        "meta_classification_type": "U",
        "meta_norad_cat_id": 26766,
        "meta_element_set_no": 999,
        "meta_rev_at_epoch": 4362,
        "meta_bstar": 0,
        "meta_mean_motion_dot": -9.5e-07,
        "meta_mean_motion_ddot": 0,
        "tle_line1": "1 26766U 01019A   25335.48570315 -.00000095  00000+0  00000+0 0  9992",
        "tle_line2": "2 26766   8.6009  61.2665 0007604 217.7090 153.5892  0.99077519 43626"
      },
      "geometry": {
        "type": "Point",
        "coordinates": [
          57.286388086512204,
          -0.5769954684553007
        ]
      }
    },
    {
      "type": "Feature",
      "properties": {
        "norad_id": 26900,
        "name": "INTELSAT 902 (IS-902)",
        "group": "intelsat",
        "lat": 5.269315718287383,
        "lon": -175.84750240647256,
        "alt_km": 35778.23823268178,
        "timestamp": "2025-12-02T10:50:46.940807+00:00",
        "meta_object_name": "INTELSAT 902 (IS-902)",
        "meta_object_id": "2001-039A",
        "meta_epoch": "2025-12-01T16:59:59.311104",
        "meta_mean_motion": 1.00270327,
        "meta_eccentricity": 0.000431,
        "meta_inclination": 5.6187,
        "meta_ra_of_asc_node": 74.2002,
        "meta_arg_of_pericenter": 175.119,
        "meta_mean_anomaly": 26.3816,
        "meta_ephemeris_type": 0,
        "meta_classification_type": "U",
        "meta_norad_cat_id": 26900,
        "meta_element_set_no": 999,
        "meta_rev_at_epoch": 8871,
        "meta_bstar": 0,
        "meta_mean_motion_dot": -2.63e-06,
        "meta_mean_motion_ddot": 0,
        "tle_line1": "1 26900U 01039A   25335.70832536 -.00000263  00000+0  00000+0 0  9992",
        "tle_line2": "2 26900   5.6187  74.2002 0004310 175.1190  26.3816  1.00270327 88715"
      },
      "geometry": {
        "type": "Point",
        "coordinates": [
          -175.84750240647256,
          5.269315718287383
        ]
      }
    },
    {
      "type": "Feature",
      "properties": {
        "norad_id": 27380,
        "name": "INTELSAT 904 (IS-904)",
        "group": "intelsat",
        "lat": 4.812751927200302,
        "lon": -157.09170454698315,
        "alt_km": 35783.47619125019,
        "timestamp": "2025-12-02T10:50:46.940822+00:00",
        "meta_object_name": "INTELSAT 904 (IS-904)",
        "meta_object_id": "2002-007A",
        "meta_epoch": "2025-12-02T03:21:43.154784",
        "meta_mean_motion": 1.0026967,
        "meta_eccentricity": 0.0001502,
        "meta_inclination": 6.4264,
        "meta_ra_of_asc_node": 71.5525,
        "meta_arg_of_pericenter": 197.1555,
        "meta_mean_anomaly": 181.4839,
        "meta_ephemeris_type": 0,
        "meta_classification_type": "U",
        "meta_norad_cat_id": 27380,
        "meta_element_set_no": 999,
        "meta_rev_at_epoch": 4979,
        "meta_bstar": 0,
        "meta_mean_motion_dot": -2.07e-06,
        "meta_mean_motion_ddot": 0,
        "tle_line1": "1 27380U 02007A   25336.14008281 -.00000207  00000+0  00000+0 0  9990",
        "tle_line2": "2 27380   6.4264  71.5525 0001502 197.1555 181.4839  1.00269670 49794"
      },
      "geometry": {
        "type": "Point",
        "coordinates": [
          -157.09170454698315,
          4.812751927200302
        ]
      }
    },
    {
      "type": "Feature",
      "properties": {
        "norad_id": 27426,
        "name": "DIRECTV 5 (TEMPO 1)",
        "group": "intelsat",
        "lat": 3.1683138422602246,
        "lon": 123.99560849451629,
        "alt_km": 35797.82657341381,
        "timestamp": "2025-12-02T10:50:46.940836+00:00",
        "meta_object_name": "DIRECTV 5 (TEMPO 1)",
        "meta_object_id": "2002-023A",
        "meta_epoch": "2025-12-01T22:57:27.363744",
        "meta_mean_motion": 1.00271136,
        "meta_eccentricity": 0.0003662,
        "meta_inclination": 4.3723,
        "meta_ra_of_asc_node": 77.779,
        "meta_arg_of_pericenter": 187.0649,
        "meta_mean_anomaly": 40.4656,
        "meta_ephemeris_type": 0,
        "meta_classification_type": "U",
        "meta_norad_cat_id": 27426,
        "meta_element_set_no": 999,
        "meta_rev_at_epoch": 8614,
        "meta_bstar": 0,
        "meta_mean_motion_dot": -3.7e-07,
        "meta_mean_motion_ddot": 0,
        "tle_line1": "1 27426U 02023A   25335.95656671 -.00000037  00000+0  00000+0 0  9990",
        "tle_line2": "2 27426   4.3723  77.7790 0003662 187.0649  40.4656  1.00271136 86146"
      },
      "geometry": {
        "type": "Point",
        "coordinates": [
          123.99560849451629,
          3.1683138422602246
        ]
      }
    },
    {
      "type": "Feature",
      "properties": {
        "norad_id": 27438,
        "name": "INTELSAT 905 (IS-905)",
        "group": "intelsat",
        "lat": 2.6441000310878824,
        "lon": 96.89511766938409,
        "alt_km": 35797.40166472887,
        "timestamp": "2025-12-02T10:50:46.940849+00:00",
        "meta_object_name": "INTELSAT 905 (IS-905)",
        "meta_object_id": "2002-027A",
        "meta_epoch": "2025-12-01T11:26:53.712384",
        "meta_mean_motion": 1.00272635,
        "meta_eccentricity": 0.00030034,
        "meta_inclination": 6.255,
        "meta_ra_of_asc_node": 72.1839,
        "meta_arg_of_pericenter": 185.4215,
        "meta_mean_anomaly": 207.5171,
        "meta_ephemeris_type": 0,
        "meta_classification_type": "U",
        "meta_norad_cat_id": 27438,
        "meta_element_set_no": 999,
        "meta_rev_at_epoch": 4938,
        "meta_bstar": 0,
        "meta_mean_motion_dot": 1.14e-06,
        "meta_mean_motion_ddot": 0,
        "tle_line1": "1 27438U 02027A   25335.47701056  .00000114  00000+0  00000+0 0  9997",
        "tle_line2": "2 27438   6.2550  72.1839 0003003 185.4215 207.5171  1.00272635 49389"
      },
      "geometry": {
        "type": "Point",
        "coordinates": [
          96.89511766938409,
          2.6441000310878824
        ]
      }
    },
    {
      "type": "Feature",
      "properties": {
        "norad_id": 27445,
        "name": "GALAXY 3C (G-3C)",
        "group": "intelsat",
        "lat": 2.7665168294860547,
        "lon": 139.32268722464414,
        "alt_km": 35781.736847871194,
        "timestamp": "2025-12-02T10:50:46.940861+00:00",
        "meta_object_name": "GALAXY 3C (G-3C)",
        "meta_object_id": "2002-030A",
        "meta_epoch": "2025-12-02T04:50:16.810944",
        "meta_mean_motion": 1.00270439,
        "meta_eccentricity": 0.0001324,
        "meta_inclination": 3.2359,
        "meta_ra_of_asc_node": 80.6133,
        "meta_arg_of_pericenter": 96.6523,
        "meta_mean_anomaly": 231.7594,
        "meta_ephemeris_type": 0,
        "meta_classification_type": "U",
        "meta_norad_cat_id": 27445,
        "meta_element_set_no": 999,
        "meta_rev_at_epoch": 4451,
        "meta_bstar": 0,
        "meta_mean_motion_dot": -1.32e-06,
        "meta_mean_motion_ddot": 0,
        "tle_line1": "1 27445U 02030A   25336.20158346 -.00000132  00000+0  00000+0 0  9990",
        "tle_line2": "2 27445   3.2359  80.6133 0001324  96.6523 231.7594  1.00270439 44519"
      },
      "geometry": {
        "type": "Point",
        "coordinates": [
          139.32268722464414,
          2.7665168294860547
        ]
      }
    },
    {
      "type": "Feature",
      "properties": {
        "norad_id": 27513,
        "name": "INTELSAT 906 (IS-906)",
        "group": "intelsat",
        "lat": -3.6277954018399847,
        "lon": -61.720467423220555,
        "alt_km": 35764.33634232315,
        "timestamp": "2025-12-02T10:50:46.940873+00:00",
        "meta_object_name": "INTELSAT 906 (IS-906)",
        "meta_object_id": "2002-041A",
        "meta_epoch": "2025-12-02T00:41:51.813024",
        "meta_mean_motion": 1.00272894,
        "meta_eccentricity": 0.0006111,
        "meta_inclination": 5.3019,
        "meta_ra_of_asc_node": 75.3582,
        "meta_arg_of_pericenter": 191.023,
        "meta_mean_anomaly": 239.354,
        "meta_ephemeris_type": 0,
        "meta_classification_type": "U",
        "meta_norad_cat_id": 27513,
        "meta_element_set_no": 999,
        "meta_rev_at_epoch": 8505,
        "meta_bstar": 0,
        "meta_mean_motion_dot": 3.2e-07,
        "meta_mean_motion_ddot": 0,
        "tle_line1": "1 27513U 02041A   25336.02907191  .00000032  00000+0  00000+0 0  9996",
        "tle_line2": "2 27513   5.3019  75.3582 0006111 191.0230 239.3540  1.00272894 85050"
      },
      "geometry": {
        "type": "Point",
        "coordinates": [
          -61.720467423220555,
          -3.6277954018399847
        ]
      }
    }
  ]
}